[{"OBJECT_NAME":"ORBCOMM FM113","OBJECT_ID":"2015-081G","EPOCH":"2026-03-09T06:16:31.573920","MEAN_MOTION":14.58730378,"ECCENTRICITY":6.326e-5,"INCLINATION":47.002,"RA_OF_ASC_NODE":23.0518,"ARG_OF_PERICENTER":114.2825,"MEAN_ANOMALY":245.8127,"EPHEMERIS_TYPE":0,"CLASSIFICATION_TYPE":"U","NORAD_CAT_ID":41185,"ELEMENT_SET_NO":999,"REV_AT_EPOCH":54434,"BSTAR":0.0002290927,"MEAN_MOTION_DOT":9.09e-6,"MEAN_MOTION_DDOT":0},{"OBJECT_NAME":"COSMOS 1275 DEB","OBJECT_ID":"1981-053MM","EPOCH":"2026-03-09T04:22:13.469376","MEAN_MOTION":14.56162813,"ECCENTRICITY":0.0015446,"INCLINATION":83.1515,"RA_OF_ASC_NODE":333.9146,"ARG_OF_PERICENTER":330.9869,"MEAN_ANOMALY":29.0473,"EPHEMERIS_TYPE":0,"CLASSIFICATION_TYPE":"U","NORAD_CAT_ID":20505,"ELEMENT_SET_NO":999,"REV_AT_EPOCH":66090,"BSTAR":0.0015175564,"MEAN_MOTION_DOT":6.73e-5,"MEAN_MOTION_DDOT":0}]
